#aV2013 10 25  0  0  0.00000000     288 DD+AD WGS84 FIT  NGA
## 1763 432000.00000000   300.00000000 56590 0.0000000000000
+   31     1  2  3  4  5  6  7  8  9 10 11 12 13 14 15 16 17
+         18 19 20 21 22 23 24 25 26 27 28 29 31 32  0  0  0
+          0  0  0  0  0  0  0  0  0  0  0  0  0  0  0  0  0
+          0  0  0  0  0  0  0  0  0  0  0  0  0  0  0  0  0
+          0  0  0  0  0  0  0  0  0  0  0  0  0  0  0  0  0
++         2  2  2  2  2  2  2  2  2  2  2  2  2  2  2  2  2
++         2  2  2  2  2  2  2  2  2  2  2  2  2  2  2  0  0
++         0  0  0  0  0  0  0  0  0  0  0  0  0  0  0  0  0
++         0  0  0  0  0  0  0  0  0  0  0  0  0  0  0  0  0
++         0  0  0  0  0  0  0  0  0  0  0  0  0  0  0  0  0
%c cc cc ccc ccc cccc cccc cccc cccc ccccc ccccc ccccc ccccc
%c cc cc ccc ccc cccc cccc cccc cccc ccccc ccccc ccccc ccccc
%f  0.0000000  0.000000000  0.00000000000  0.000000000000000
%f  0.0000000  0.000000000  0.00000000000  0.000000000000000
%i    0    0    0    0      0      0      0      0         0
%i    0    0    0    0      0      0      0      0         0
/*      NGA, ST. LOUIS,MO.                                  
/*   EPHEMERIS COMPUTED FROM  1 DAYS OF DATA
/*   EPOCHA SMOOTHER  
/* CCCCCCCCCCCCCCCCCCCCCCCCCCCCCCCCCCCCCCCCCCCCCCCCCCCCCCCCC
*  2013 10 25  6 55  0.00000000                                                 
P  1 -20308.004884 -13623.375872 -10532.533624     88.153314                    
V  1  13428.137124   1435.548305 -27726.161165      0.035357                    
P  2  -2226.641969  15728.988639  21541.611635    457.553355                    
V  2 -25965.340341  -6905.749218   1878.115007      0.021132                    
P  3   3669.890679 -22204.132182 -14502.178763    277.161797                    
V  3  12885.430898 -12340.127511  23195.984038      0.049975                    
P  4 -17183.068628   8867.762231  18013.443099      2.454928                    
V  4 -22086.199725  -8153.461528 -16515.638025      0.003541                    
P  5    984.011256  25435.339964   7267.160392   -398.597544                    
V  5  -5325.880641  -8282.724628  29727.828150      0.004817                    
P  6  11147.906800 -22066.431089  -9114.436476    118.504117                    
V  6  10461.988932  -6434.109561  28581.878355      0.178942                    
P  7 -25894.725027  -5471.799692  -3723.593330    273.300346                    
V  7  -3916.880555  -3410.439217  31386.155864      0.042007                    
P  8 -22647.118012    427.188975 -14224.975240      9.382488                    
V  8 -16238.937109  -7807.966324  24784.275832      0.002819                    
P  9 -22278.939701   3688.717951 -14619.919563    278.071411                    
V  9 -16489.011692  -6176.435336  24332.947889      0.028697                    
P 10 -11186.295511  13800.730888  19300.036425    -99.176820                    
V 10  -7361.878453 -24344.783536  13352.429820     -0.012264                    
P 11 -14603.305436 -14059.771806 -17746.545909   -431.837433                    
V 11  21763.458633  -2912.176757 -15788.264706     -0.035233                    
P 12  11003.484410  22412.933396   9311.131331    164.106029                    
V 12    775.641746  11890.588291 -29189.153656      0.022321                    
P 13 -19728.601217    310.650764  17719.835349     66.647862                    
V 13  17084.256210 -14938.722824  19003.604439     -0.038615                    
P 14  21469.251611 -15159.877215  -3006.450105    212.468247                    
V 14  -1507.010215   4597.152563 -31804.990236     -0.009999                    
P 15   6205.264750  15368.584055 -20735.798286   -143.697569                    
V 15 -19155.998057  18187.952171   8029.981633     -0.019341                    
P 16     86.077119 -25344.045119   7306.776150   -243.627709                    
V 16   3880.082109   8809.250172  30708.860268      0.009544                    
P 17 -21295.037248  15034.206925  -4140.828927    -34.348112                    
V 17   2301.300333  -5809.713339 -31454.572747     -0.036326                    
P 18  16495.732643   3666.387864 -20134.397285    281.236494                    
V 18   5481.388397  26028.377875   8703.450761      0.020791                    
P 19  -2062.620094 -16659.489237 -20599.555914   -413.830992                    
V 19  21002.313394 -15346.405261  10786.306490     -0.026782                    
P 20 -14921.133694 -18489.610158  11768.245055    131.867799                    
V 20  -1437.612278 -15533.600302 -25752.683348      0.027874                    
P 21  25927.742152   3172.690075  -5496.136654   -325.232921                    
V 21   6453.785570   5265.562584  29739.084720     -0.018473                    
P 22  13214.825437 -10395.161377 -20333.654087    191.488101                    
V 22   7475.928335  25390.274035  -8190.029517      0.020611                    
P 23 -13018.474983  -8745.051277  21562.360405     36.176486                    
V 23  19644.607952 -18736.828152   3880.258910     -0.033962                    
P 24  17012.796353  14935.544806 -13940.381263    -16.141715                    
V 24 -17616.403536  -2652.922163 -24289.554156     -0.006620                    
P 25  15663.817902  10886.029920  18468.540002    160.677373                    
V 25   4531.487635  23087.564246 -17298.771210      0.035033                    
P 26  -8076.380679  20055.655640 -15850.525546    255.937263                    
V 26 -15947.952321  10567.290545  22723.961468      0.191709                    
P 27   9110.366735 -21351.950957 -12902.291475    -51.449676                    
V 27  13347.585882  -9748.874613  25593.870167     -0.039466                    
P 28 -13366.837856   6169.409404 -21500.433736    303.362570                    
V 28  -5608.738888 -28133.316659  -4628.237483      0.029715                    
P 29  17440.298917   2961.238793  19837.490197    481.677788                    
V 29 -18207.222583  17313.245735  13483.688425      0.030779                    
P 31  15221.696078  -9220.345097  19981.583293    328.525343                    
V 31  23440.097006   8301.228036 -13867.086490      0.006684                    
P 32  -7092.379251 -25566.727854   4228.243448   -537.006254                    
V 32   1828.963715  -5527.191999 -30543.514035      0.039067                    
EOF
